ONEWEB-0578             
1 56067U 23043X   25319.86649286  .00000181  00000+0  40570-3 0  9993
2 56067  87.9186 286.5256 0001759  76.8071 283.3259 13.21825502130050
ONEWEB-0579             
1 56068U 23043Y   25319.62953884  .00000123  00000+0  26688-3 0  9990
2 56068  87.9188 286.5603 0002103  87.7710 272.3665 13.21827675130034
ONEWEB-0581             
1 56069U 23043Z   25319.82678970 -.00000309  00000+0 -84110-3 0  9995
2 56069  87.9012 271.2738 0001634  92.3803 267.7515 13.16593654130880
ONEWEB-0609             
1 56070U 23043AA  25319.69083591  .00000052  00000+0  10336-3 0  9993
2 56070  87.8966 301.8204 0001945  85.2624 274.8728 13.15546857128361
ONEWEB-0613             
1 56071U 23043AB  25319.68609161  .00000038  00000+0  68135-4 0  9995
2 56071  87.8963 301.8345 0002157  88.9068 271.2309 13.15547239128364
ONEWEB-0630             
1 56072U 23043AC  25319.68133080 -.00000228  00000+0 -64022-3 0  9991
2 56072  87.8962 301.8071 0002165  89.6170 270.5209 13.15548306128357
ONEWEB-0632             
1 56073U 23043AD  25319.44839810 -.00000198  00000+0 -55950-3 0  9996
2 56073  87.8959 301.8722 0001814  93.8257 266.3081 13.15548759128320
ONEWEB-0633             
1 56074U 23043AE  25319.67023181 -.00000222  00000+0 -62418-3 0  9993
2 56074  87.8960 301.7915 0002302  85.1078 275.0315 13.15547855128338
